{
  "generated_at": "2026-06-10T10:00:06+00:00",
  "source": "celestrak.org",
  "satellite_count": 9,
  "satellites": [
    {
      "id": "terra",
      "name": "TERRA",
      "platform": "EOS",
      "sensor": "MODIS",
      "swath_km": 2330,
      "color": "#39d0d8",
      "norad": 25994,
      "tle1": "1 25994U 99068A   26161.10522333  .00000314  00000+0  72812-4 0  9997",
      "tle2": "2 25994  97.9458 210.9320 0001056 221.2301 223.2046 14.61097404408572"
    },
    {
      "id": "aqua",
      "name": "AQUA",
      "platform": "EOS",
      "sensor": "MODIS",
      "swath_km": 2330,
      "color": "#2bb673",
      "norad": 27424,
      "tle1": "1 27424U 02022A   26161.20233845  .00000684  00000+0  14581-3 0  9997",
      "tle2": "2 27424  98.4274 130.3458 0001385  53.4216 322.7220 14.62147478282258"
    },
    {
      "id": "snpp",
      "name": "SUOMI NPP",
      "platform": "JPSS",
      "sensor": "VIIRS",
      "swath_km": 3000,
      "color": "#ff8c42",
      "norad": 37849,
      "tle1": "1 37849U 11061A   26161.15096162  .00000062  00000+0  50283-4 0  9995",
      "tle2": "2 37849  98.7953 102.0751 0001921  22.8612 337.2649 14.19515946757440"
    },
    {
      "id": "noaa20",
      "name": "NOAA 20",
      "platform": "JPSS",
      "sensor": "VIIRS",
      "swath_km": 3000,
      "color": "#ffaa00",
      "norad": 43013,
      "tle1": "1 43013U 17073A   26161.09366633  .00000036  00000+0  38069-4 0  9999",
      "tle2": "2 43013  98.7772 100.6193 0000405  47.6895 312.4315 14.19510428443466"
    },
    {
      "id": "noaa21",
      "name": "NOAA 21",
      "platform": "JPSS",
      "sensor": "VIIRS",
      "swath_km": 3000,
      "color": "#ff5a3a",
      "norad": 54234,
      "tle1": "1 54234U 22150A   26161.05634265  .00000037  00000+0  38111-4 0  9992",
      "tle2": "2 54234  98.7059  99.9653 0001251 170.9245 189.1954 14.19564232185532"
    },
    {
      "id": "sentinel2a",
      "name": "SENTINEL-2A",
      "platform": "Copernicus",
      "sensor": "MSI",
      "swath_km": 290,
      "color": "#b388ff",
      "norad": 40697,
      "tle1": "1 40697U 15028A   26161.15174118  .00000086  00000+0  49560-4 0  9997",
      "tle2": "2 40697  98.5680 236.1030 0001063  88.4723 271.6582 14.30821927572722"
    },
    {
      "id": "sentinel2b",
      "name": "SENTINEL-2B",
      "platform": "Copernicus",
      "sensor": "MSI",
      "swath_km": 290,
      "color": "#9d6dff",
      "norad": 42063,
      "tle1": "1 42063U 17013A   26161.14454722  .00000015  00000+0  22393-4 0  9990",
      "tle2": "2 42063  98.5688 236.0181 0001199  86.6215 273.5105 14.30814850483631"
    },
    {
      "id": "sentinel3a",
      "name": "SENTINEL-3A",
      "platform": "Copernicus",
      "sensor": "OLCI",
      "swath_km": 1270,
      "color": "#7a4fff",
      "norad": 41335,
      "tle1": "1 41335U 16011A   26161.13344734  .00000079  00000+0  50683-4 0  9991",
      "tle2": "2 41335  98.6249 228.6181 0001360 103.9901 256.1431 14.26738023537055"
    },
    {
      "id": "sentinel3b",
      "name": "SENTINEL-3B",
      "platform": "Copernicus",
      "sensor": "OLCI",
      "swath_km": 1270,
      "color": "#5e3bff",
      "norad": 43437,
      "tle1": "1 43437U 18039A   26161.03645184  .00000089  00000+0  54656-4 0  9995",
      "tle2": "2 43437  98.6249 228.6712 0000830  79.6318 280.4956 14.26739752423104"
    }
  ]
}